sat27130
1 27130U 01049CA  20046.88894453  .00000088  00000-0  19785-4 0  9998
2 27130  98.1630  18.0511 0016433 348.0505  40.0818 14.77779930976265
